[
    {
        "CCSDS_OMM_VERS": "3.0",
        "COMMENT": "GENERATED VIA SPACE-TRACK.ORG API",
        "CREATION_DATE": "2025-05-03T17:28:03",
        "ORIGINATOR": "18 SPCS",
        "OBJECT_NAME": "BEIDOU 3M14",
        "OBJECT_ID": "2018-072B",
        "CENTER_NAME": "EARTH",
        "REF_FRAME": "TEME",
        "TIME_SYSTEM": "UTC",
        "MEAN_ELEMENT_THEORY": "SGP4",
        "EPOCH": "2025-05-03T04:01:42.629664",
        "MEAN_MOTION": "1.86231288",
        "ECCENTRICITY": "0.00067050",
        "INCLINATION": "56.2665",
        "RA_OF_ASC_NODE": "76.2217",
        "ARG_OF_PERICENTER": "335.8404",
        "MEAN_ANOMALY": "24.0972",
        "EPHEMERIS_TYPE": "0",
        "CLASSIFICATION_TYPE": "U",
        "NORAD_CAT_ID": "43623",
        "ELEMENT_SET_NO": "999",
        "REV_AT_EPOCH": "4501",
        "BSTAR": "0.00000000000000",
        "MEAN_MOTION_DOT": "-0.00000014",
        "MEAN_MOTION_DDOT": "0.0000000000000",
        "SEMIMAJOR_AXIS": "27906.160",
        "PERIOD": "773.232",
        "APOAPSIS": "21546.736",
        "PERIAPSIS": "21509.314",
        "OBJECT_TYPE": "PAYLOAD",
        "RCS_SIZE": "LARGE",
        "COUNTRY_CODE": "PRC",
        "LAUNCH_DATE": "2018-09-19",
        "SITE": "XSC",
        "DECAY_DATE": null,
        "FILE": "4717971",
        "GP_ID": "286762572",
        "TLE_LINE0": "0 BEIDOU 3M14",
        "TLE_LINE1": "1 43623U 18072B   25123.16785451 -.00000014  00000-0  00000-0 0  9992",
        "TLE_LINE2": "2 43623  56.2665  76.2217 0006705 335.8404  24.0972  1.86231288 45013"
    }
]